IRIDIUM 150             
1 43257U 18030J   23290.38892605  .00000448  00000+0  15306-3 0  9993
2 43257  86.3987 337.4660 0001884  97.0285 263.1125 14.34220170290606
IRIDIUM 143             
1 43258U 18030K   23290.50943633  .00000464  00000+0  15845-3 0  9992
2 43258  86.3990 337.4693 0002192  99.6133 260.5311 14.34218859290564
IRIDIUM 161             
1 43478U 18047C   23290.48662810  .00000609  00000+0  17506-3 0  9993
2 43478  86.4479 135.4542 0002045  84.4041 275.7393 14.43287957284697
IRIDIUM 152             
1 43479U 18047D   23290.48215026  .00000460  00000+0  15705-3 0  9991
2 43479  86.3952 135.3159 0002173  92.5911 267.5533 14.34219120282931
IRIDIUM 147             
1 43480U 18047E   23290.48849348  .00000477  00000+0  16317-3 0  9991
2 43480  86.3955 135.3014 0002108  80.5165 279.6269 14.34218563282921
IRIDIUM 110             
1 43481U 18047F   23290.49483604  .00000165  00000+0  51832-4 0  9998
2 43481  86.3960 135.3652 0001990  77.9812 282.1607 14.34217614282913
IRIDIUM 162             
1 43482U 18047G   23289.64836512  .00000620  00000+0  17841-3 0  9991
2 43482  86.4479 135.7081 0002096  84.5357 275.6083 14.43275319284560
IRIDIUM 160             
1 43569U 18061A   23290.51044439  .00000197  00000+0  63240-4 0  9994
2 43569  86.3917 103.7209 0002381  89.4272 270.7197 14.34217461273818
